STARLINK-31284          
1 59246U 24049R   26068.20580556 -.00002109  00000+0 -67171-4 0  9997
2 59246  43.0033 146.1340 0000917 212.5513 147.5282 15.27573933112329
TEVEL2-2                
1 63219U 25052K   26068.64848259  .00020339  00000+0  69428-3 0  9991
2 63219  97.3987 324.7700 0004693 105.7930 254.3828 15.30343745 54855
